NORAD_CAT_ID,OBJECT_NAME,OBJECT_TYPE,EPOCH,MEAN_MOTION,ECCENTRICITY,INCLINATION,RA_OF_ASC_NODE,ARG_OF_PERICENTER,MEAN_ANOMALY,BSTAR,MEAN_MOTION_DOT,MEAN_MOTION_DDOT,TLE_LINE0,TLE_LINE1,TLE_LINE2,SEMIMAJOR_AXIS,PERIOD,APOGEE,PERIGEE,DECAYED
53793.0,STARLINK-4728,PAYLOAD,2023-05-16 17:43:04,15.0884898,5.67e-05,53.2155,208.5443,74.8859,285.2196,0.00035082,5.301e-05,0.0,0 STARLINK-4728,1 53793U 22111W   23136.73824205  .00005301  00000-0  35082-3 0  9990,2 53793  53.2155 208.5443 0000567  74.8859 285.2196 15.08848980 38505,6917.853,95.437,540.11,539.326,0.0
53793.0,STARLINK-4728,PAYLOAD,2023-05-17 11:12:18,15.08842552,5.76e-05,53.2156,205.2735,71.2871,288.8183,0.00011619,1.562e-05,0.0,0 STARLINK-4728,1 53793U 22111W   23137.46688282  .00001562  00000-0  11619-3 0  9999,2 53793  53.2156 205.2735 0000576  71.2871 288.8183 15.08842552 37816,6917.873,95.437,540.136,539.339,0.0
53793.0,STARLINK-4728,PAYLOAD,2023-05-17 14:23:04,15.08845659,5.64e-05,53.2155,204.6786,73.0576,287.0477,0.00015516,2.183e-05,0.0,0 STARLINK-4728,1 53793U 22111W   23137.59936099  .00002183  00000-0  15516-3 0  9995,2 53793  53.2155 204.6786 0000564  73.0576 287.0477 15.08845659 38632,6917.863,95.437,540.118,539.338,0.0
53793.0,STARLINK-4728,PAYLOAD,2023-05-18 12:38:29,15.08833993,5.73e-05,53.2161,200.516,89.9395,270.1663,5.3133e-05,5.58e-06,0.0,0 STARLINK-4728,1 53793U 22111W   23138.52673029  .00000558  00000-0  53133-4 0  9992,2 53793  53.2161 200.5160 0000573  89.9395 270.1663 15.08833993 37979,6917.899,95.438,540.16,539.367,0.0
53793.0,STARLINK-4728,PAYLOAD,2023-05-18 14:13:52,15.08834646,5.76e-05,53.216,200.2185,89.6224,270.4834,4.88e-05,4.89e-06,0.0,0 STARLINK-4728,1 53793U 22111W   23138.59297003  .00000489  00000-0  48800-4 0  9991,2 53793  53.2160 200.2185 0000576  89.6224 270.4834 15.08834646 38782,6917.897,95.438,540.16,539.363,0.0
53793.0,STARLINK-4728,PAYLOAD,2023-05-19 09:18:29,15.08844114,6.12e-05,53.2153,196.6502,92.0155,268.0907,0.00012561,1.712e-05,0.0,0 STARLINK-4728,1 53793U 22111W   23139.38784304  .00001712  00000-0  12561-3 0  9998,2 53793  53.2153 196.6502 0000612  92.0155 268.0907 15.08844114 38108,6917.868,95.437,540.156,539.309,0.0
53793.0,STARLINK-4728,PAYLOAD,2023-05-19 20:26:11,15.08843289,5.65e-05,53.2151,194.5689,88.0535,272.0522,6.9351e-05,8.16e-06,0.0,0 STARLINK-4728,1 53793U 22111W   23139.85152308  .00000816  00000-0  69351-4 0  9997,2 53793  53.2151 194.5689 0000565  88.0535 272.0522 15.08843289 38978,6917.87,95.437,540.126,539.344,0.0
53793.0,STARLINK-4728,PAYLOAD,2023-05-20 02:47:44,15.08838239,6.25e-05,53.2152,193.3797,81.9403,278.166,0.00011161,1.489e-05,0.0,0 STARLINK-4728,1 53793U 22111W   23140.11648631  .00001489  00000-0  11161-3 0  9999,2 53793  53.2152 193.3797 0000625  81.9403 278.1660 15.08838239 38215,6917.886,95.438,540.183,539.318,0.0
53793.0,STARLINK-4728,PAYLOAD,2023-05-20 20:16:58,15.08848155,7.03e-05,53.2151,190.1086,80.8774,279.2298,0.00018408,2.644e-05,0.0,0 STARLINK-4728,1 53793U 22111W   23140.84512150  .00002644  00000-0  18408-3 0  9990,2 53793  53.2151 190.1086 0000703  80.8774 279.2298 15.08848155 39124,6917.855,95.437,540.207,539.234,0.0
53793.0,STARLINK-4728,PAYLOAD,2023-05-21 12:10:49,15.08849964,8.36e-05,53.2157,187.1354,82.0984,278.0103,0.00015273,2.144e-05,0.0,0 STARLINK-4728,1 53793U 22111W   23141.50751866  .00002144  00000-0  15273-3 0  9995,2 53793  53.2157 187.1354 0000836  82.0984 278.0103 15.08849964 39220,6917.85,95.437,540.293,539.137,0.0
53793.0,STARLINK-4728,PAYLOAD,2023-05-21 20:07:45,15.08838707,8.24e-05,53.2148,185.6472,82.5523,277.5563,-2.5961e-06,-3.29e-06,0.0,0 STARLINK-4728,1 53793U 22111W   23141.83872409 -.00000329  00000-0 -25961-5 0  9990,2 53793  53.2148 185.6472 0000824  82.5523 277.5563 15.08838707 39277,6917.884,95.438,540.319,539.179,0.0
53793.0,STARLINK-4728,PAYLOAD,2023-05-22 02:29:18,15.0883365,9.89e-05,53.2158,184.458,83.8026,276.3079,-3.3069e-05,-8.14e-06,0.0,0 STARLINK-4728,1 53793U 22111W   23142.10368830 -.00000814  00000-0 -33069-4 0  9995,2 53793  53.2158 184.4580 0000989  83.8026 276.3079 15.08833650 38516,6917.9,95.438,540.449,539.081,0.0
53793.0,STARLINK-4728,PAYLOAD,2023-05-22 10:26:14,15.08835448,7.45e-05,53.2152,182.9709,88.9753,271.1324,-1.2459e-05,-4.86e-06,0.0,0 STARLINK-4728,1 53793U 22111W   23142.43488811 -.00000486  00000-0 -12459-4 0  9998,2 53793  53.2152 182.9709 0000745  88.9753 271.1324 15.08835448 39366,6917.894,95.438,540.275,539.244,0.0
53793.0,STARLINK-4728,PAYLOAD,2023-05-22 19:58:33,15.08836104,7.11e-05,53.2151,181.1871,87.8353,272.2721,1.0719e-05,-1.17e-06,0.0,0 STARLINK-4728,1 53793U 22111W   23142.83232931 -.00000117  00000-0  10719-4 0  9999,2 53793  53.2151 181.1871 0000711  87.8353 272.2721 15.08836104 39423,6917.892,95.438,540.249,539.265,0.0
53793.0,STARLINK-4728,PAYLOAD,2023-05-23 08:41:38,15.08839727,6.68e-05,53.2147,178.8075,94.6578,265.449,8.6827e-05,1.094e-05,0.0,0 STARLINK-4728,1 53793U 22111W   23143.36224961  .00001094  00000-0  86827-4 0  9999,2 53793  53.2147 178.8075 0000668  94.6578 265.4490 15.08839727 38704,6917.881,95.438,540.208,539.284,0.0
53793.0,STARLINK-4728,PAYLOAD,2023-05-23 19:49:20,15.08839168,6.56e-05,53.2146,176.7259,102.2688,257.8378,0.0001077,1.427e-05,0.0,0 STARLINK-4728,1 53793U 22111W   23143.82593132  .00001427  00000-0  10770-3 0  9992,2 53793  53.2146 176.7259 0000656 102.2688 257.8378 15.08839168 39574,6917.883,95.438,540.202,539.294,0.0
53793.0,STARLINK-4728,PAYLOAD,2023-05-24 08:32:25,15.08840472,6.68e-05,53.2147,174.347,93.3127,266.7941,0.00023932,3.523e-05,0.0,0 STARLINK-4728,1 53793U 22111W   23144.35585326  .00003523  00000-0  23932-3 0  9990,2 53793  53.2147 174.3470 0000668  93.3127 266.7941 15.08840472 39659,6917.879,95.438,540.206,539.282,0.0
53793.0,STARLINK-4728,PAYLOAD,2023-05-26 05:03:13,15.08843125,7.38e-05,53.2149,166.0206,82.1548,277.9528,9.5271e-05,1.229e-05,0.0,0 STARLINK-4728,1 53793U 22111W   23146.21057154  .00001229  00000-0  95271-4 0  9997,2 53793  53.2149 166.0206 0000738  82.1548 277.9528 15.08843125 39133,6917.871,95.437,540.246,539.225,0.0
53793.0,STARLINK-4728,PAYLOAD,2023-05-26 11:24:45,15.08842748,7.11e-05,53.2156,164.8314,84.5943,275.5131,9.5256e-05,1.229e-05,0.0,0 STARLINK-4728,1 53793U 22111W   23146.47553131  .00001229  00000-0  95256-4 0  9994,2 53793  53.2156 164.8314 0000711  84.5943 275.5131 15.08842748 39979,6917.872,95.437,540.229,539.245,0.0
53793.0,STARLINK-4728,PAYLOAD,2023-05-27 01:43:14,15.0883634,7.27e-05,53.2153,162.1543,82.7195,277.388,5.8166e-05,6.38e-06,0.0,0 STARLINK-4728,1 53793U 22111W   23147.07169629  .00000638  00000-0  58166-4 0  9998,2 53793  53.2153 162.1543 0000727  82.7195 277.3880 15.08836340 39261,6917.892,95.438,540.26,539.254,0.0
53793.0,STARLINK-4728,PAYLOAD,2023-05-27 17:37:05,15.08837803,7e-05,53.2151,159.1811,75.8861,284.2209,3.889e-05,3.31e-06,0.0,0 STARLINK-4728,1 53793U 22111W   23147.73409630  .00000331  00000-0  38890-4 0  9992,2 53793  53.2151 159.1811 0000700  75.8861 284.2209 15.08837803 40165,6917.887,95.438,540.236,539.268,0.0
53793.0,STARLINK-4728,PAYLOAD,2023-05-28 06:20:10,15.08840508,6.94e-05,53.2148,156.8017,70.4095,289.6972,6.3742e-05,7.27e-06,0.0,0 STARLINK-4728,1 53793U 22111W   23148.26401450  .00000727  00000-0  63742-4 0  9996,2 53793  53.2148 156.8017 0000694  70.4095 289.6972 15.08840508 40246,6917.879,95.438,540.224,539.264,0.0
53793.0,STARLINK-4728,PAYLOAD,2023-05-28 09:30:57,15.08841633,7.08e-05,53.2149,156.2072,72.6159,287.4911,6.9296e-05,8.15e-06,0.0,0 STARLINK-4728,1 53793U 22111W   23148.39649354  .00000815  00000-0  69296-4 0  9995,2 53793  53.2149 156.2072 0000708  72.6159 287.4911 15.08841633 39464,6917.875,95.437,540.23,539.251,0.0
53793.0,STARLINK-4728,PAYLOAD,2023-05-29 09:21:44,15.08839954,7.01e-05,53.2153,151.7474,76.0225,284.0845,8.404e-05,1.05e-05,0.0,0 STARLINK-4728,1 53793U 22111W   23149.39009521  .00001050  00000-0  84040-4 0  9998,2 53793  53.2153 151.7474 0000701  76.0225 284.0845 15.08839954 40419,6917.881,95.438,540.23,539.261,0.0
53793.0,STARLINK-4728,PAYLOAD,2023-05-29 17:18:39,15.08839669,6.98e-05,53.2153,150.2606,75.6448,284.4622,7.2423e-05,8.65e-06,0.0,0 STARLINK-4728,1 53793U 22111W   23149.72129575  .00000865  00000-0  72423-4 0  9992,2 53793  53.2153 150.2606 0000698  75.6448 284.4622 15.08839669 39662,6917.881,95.438,540.229,539.264,0.0
53793.0,STARLINK-4728,PAYLOAD,2023-05-30 07:37:08,15.08840656,7.74e-05,53.2158,147.5835,77.3122,282.7957,5.1866e-05,5.38e-06,0.0,0 STARLINK-4728,1 53793U 22111W   23150.31745585  .00000538  00000-0  51866-4 0  9999,2 53793  53.2158 147.5835 0000774  77.3122 282.7957 15.08840656 40553,6917.878,95.438,540.279,539.208,0.0
53793.0,STARLINK-4728,PAYLOAD,2023-05-31 04:17:08,15.08842067,7.87e-05,53.2159,143.7174,76.6205,283.4874,7.2323e-05,8.64e-06,0.0,0 STARLINK-4728,1 53793U 22111W   23151.17857433  .00000864  00000-0  72323-4 0  9993,2 53793  53.2159 143.7174 0000787  76.6205 283.4874 15.08842067 39884,6917.874,95.437,540.284,539.195,0.0
53793.0,STARLINK-4728,PAYLOAD,2023-05-31 09:03:18,15.08843456,7.78e-05,53.2156,142.8259,74.5034,285.6044,7.9532e-05,9.78e-06,0.0,0 STARLINK-4728,1 53793U 22111W   23151.37729308  .00000978  00000-0  79532-4 0  9999,2 53793  53.2156 142.8259 0000778  74.5034 285.6044 15.08843456 40712,6917.87,95.437,540.273,539.197,0.0
53793.0,STARLINK-4728,PAYLOAD,2023-05-31 17:00:13,15.08841104,7.74e-05,53.2156,141.3386,75.0265,285.0813,6.2118e-05,7.01e-06,0.0,0 STARLINK-4728,1 53793U 22111W   23151.70849467  .00000701  00000-0  62118-4 0  9991,2 53793  53.2156 141.3386 0000774  75.0265 285.0813 15.08841104 40766,6917.877,95.437,540.277,539.207,0.0
53793.0,STARLINK-4728,PAYLOAD,2023-06-01 02:32:33,15.0883648,8.34e-05,53.2157,139.5555,73.0789,287.0294,2.9307e-05,1.79e-06,0.0,0 STARLINK-4728,1 53793U 22111W   23152.10593914  .00000179  00000-0  29307-4 0  9991,2 53793  53.2157 139.5555 0000834  73.0789 287.0294 15.08836480 40025,6917.891,95.438,540.333,539.179,0.0
